{"type": "FeatureCollection", "features": [ {"type": "Feature", "properties": {"norad_id": 34553, "name": "COSMOS 2251 DEB", "group": "cosmos-2251-debris", "lat": 65.16031650200662, "lon": -48.540061319536655, "alt_km": 703.3215933862048, "timestamp": "2025-12-24T09:46:31.399486+00:00", "meta": {"OBJECT_NAME": "COSMOS 2251 DEB", "OBJECT_ID": "1993-036UP", "EPOCH": "2025-12-23T15:42:29.382336", "MEAN_MOTION": 14.57818624, "ECCENTRICITY": 0.00190584, "INCLINATION": 74.0245, "RA_OF_ASC_NODE": 171.1244, "ARG_OF_PERICENTER": 247.6983, "MEAN_ANOMALY": 232.482, "EPHEMERIS_TYPE": 0, "CLASSIFICATION_TYPE": "U", "NORAD_CAT_ID": 34553, "ELEMENT_SET_NO": 999, "REV_AT_EPOCH": 88255, "BSTAR": 0.0011251425, "MEAN_MOTION_DOT": 5.136e-05, "MEAN_MOTION_DDOT": 0}, "tle": {"line1": "1 34553U 93036UP  25357.65450674  .00005136  00000+0  11251-2 0  9996", "line2": "2 34553  74.0245 171.1244 0019058 247.6983 232.4820 14.57818624882551"}}, "geometry": {"type": "Point", "coordinates": [-48.540061319536655, 65.16031650200662]}}, {"type": "Feature", "properties": {"norad_id": 34554, "name": "COSMOS 2251 DEB", "group": "cosmos-2251-debris", "lat": 69.13613838257143, "lon": 48.84074464146004, "alt_km": 768.010184861987, "timestamp": "2025-12-24T09:46:31.399497+00:00", "meta": {"OBJECT_NAME": "COSMOS 2251 DEB", "OBJECT_ID": "1993-036UQ", "EPOCH": "2025-12-24T01:00:59.060736", "MEAN_MOTION": 14.3795986, "ECCENTRICITY": 0.0023494, "INCLINATION": 74.0391, "RA_OF_ASC_NODE": 278.1795, "ARG_OF_PERICENTER": 338.3863, "MEAN_ANOMALY": 36.4762, "EPHEMERIS_TYPE": 0, "CLASSIFICATION_TYPE": "U", "NORAD_CAT_ID": 34554, "ELEMENT_SET_NO": 999, "REV_AT_EPOCH": 87918, "BSTAR": 0.00029849, "MEAN_MOTION_DOT": 8.79e-06, "MEAN_MOTION_DDOT": 0}, "tle": {"line1": "1 34554U 93036UQ  25358.04235024  .00000879  00000+0  29849-3 0  9993", "line2": "2 34554  74.0391 278.1795 0023494 338.3863  36.4762 14.37959860879185"}}, "geometry": {"type": "Point", "coordinates": [48.84074464146004, 69.13613838257143]}}, {"type": "Feature", "properties": {"norad_id": 34556, "name": "COSMOS 2251 DEB", "group": "cosmos-2251-debris", "lat": 36.584441877547036, "lon": -90.3634850137823, "alt_km": 627.9983767329095, "timestamp": "2025-12-24T09:46:31.399507+00:00", "meta": {"OBJECT_NAME": "COSMOS 2251 DEB", "OBJECT_ID": "1993-036US", "EPOCH": "2025-12-23T07:17:17.327328", "MEAN_MOTION": 14.78109579, "ECCENTRICITY": 0.0006471, "INCLINATION": 74.0161, "RA_OF_ASC_NODE": 104.0893, "ARG_OF_PERICENTER": 163.81, "MEAN_ANOMALY": 227.5326, "EPHEMERIS_TYPE": 0, "CLASSIFICATION_TYPE": "U", "NORAD_CAT_ID": 34556, "ELEMENT_SET_NO": 999, "REV_AT_EPOCH": 88485, "BSTAR": 0.0023118, "MEAN_MOTION_DOT": 0.00016741, "MEAN_MOTION_DDOT": 0}, "tle": {"line1": "1 34556U 93036US  25357.30367277  .00016741  00000+0  23118-2 0  9996", "line2": "2 34556  74.0161 104.0893 0006471 163.8100 227.5326 14.78109579884857"}}, "geometry": {"type": "Point", "coordinates": [-90.3634850137823, 36.584441877547036]}}, {"type": "Feature", "properties": {"norad_id": 34560, "name": "COSMOS 2251 DEB", "group": "cosmos-2251-debris", "lat": 22.916754205294474, "lon": -67.55522487782419, "alt_km": 645.8192196898717, "timestamp": "2025-12-24T09:46:31.399518+00:00", "meta": {"OBJECT_NAME": "COSMOS 2251 DEB", "OBJECT_ID": "1993-036UW", "EPOCH": "2025-12-23T07:04:29.741088", "MEAN_MOTION": 14.72394071, "ECCENTRICITY": 0.0013845, "INCLINATION": 74.0173, "RA_OF_ASC_NODE": 121.571, "ARG_OF_PERICENTER": 204.3382, "MEAN_ANOMALY": 177.1217, "EPHEMERIS_TYPE": 0, "CLASSIFICATION_TYPE": "U", "NORAD_CAT_ID": 34560, "ELEMENT_SET_NO": 999, "REV_AT_EPOCH": 88407, "BSTAR": 0.0022712, "MEAN_MOTION_DOT": 0.00014408, "MEAN_MOTION_DDOT": 0}, "tle": {"line1": "1 34560U 93036UW  25357.29478867  .00014408  00000+0  22712-2 0  9994", "line2": "2 34560  74.0173 121.5710 0013845 204.3382 177.1217 14.72394071884073"}}, "geometry": {"type": "Point", "coordinates": [-67.55522487782419, 22.916754205294474]}}, {"type": "Feature", "properties": {"norad_id": 34563, "name": "COSMOS 2251 DEB", "group": "cosmos-2251-debris", "lat": -71.06403515354623, "lon": 125.37696078335829, "alt_km": 734.0295996975346, "timestamp": "2025-12-24T09:46:31.399528+00:00", "meta": {"OBJECT_NAME": "COSMOS 2251 DEB", "OBJECT_ID": "1993-036UZ", "EPOCH": "2025-12-23T23:05:47.586912", "MEAN_MOTION": 14.46543092, "ECCENTRICITY": 0.0013919, "INCLINATION": 74.0364, "RA_OF_ASC_NODE": 182.755, "ARG_OF_PERICENTER": 276.181, "MEAN_ANOMALY": 207.9628, "EPHEMERIS_TYPE": 0, "CLASSIFICATION_TYPE": "U", "NORAD_CAT_ID": 34563, "ELEMENT_SET_NO": 999, "REV_AT_EPOCH": 88359, "BSTAR": 0.00041104, "MEAN_MOTION_DOT": 1.456e-05, "MEAN_MOTION_DDOT": 0}, "tle": {"line1": "1 34563U 93036UZ  25357.96235633  .00001456  00000+0  41104-3 0  9999", "line2": "2 34563  74.0364 182.7550 0013919 276.1810 207.9628 14.46543092883598"}}, "geometry": {"type": "Point", "coordinates": [125.37696078335829, -71.06403515354623]}}, {"type": "Feature", "properties": {"norad_id": 34564, "name": "COSMOS 2251 DEB", "group": "cosmos-2251-debris", "lat": 5.167424656026535, "lon": 34.94140751161291, "alt_km": 769.293036169579, "timestamp": "2025-12-24T09:46:31.399539+00:00", "meta": {"OBJECT_NAME": "COSMOS 2251 DEB", "OBJECT_ID": "1993-036VA", "EPOCH": "2025-12-24T01:22:04.041408", "MEAN_MOTION": 14.40708116, "ECCENTRICITY": 0.0019407, "INCLINATION": 74.0313, "RA_OF_ASC_NODE": 217.0732, "ARG_OF_PERICENTER": 319.4075, "MEAN_ANOMALY": 199.0321, "EPHEMERIS_TYPE": 0, "CLASSIFICATION_TYPE": "U", "NORAD_CAT_ID": 34564, "ELEMENT_SET_NO": 999, "REV_AT_EPOCH": 88169, "BSTAR": 0.00021969, "MEAN_MOTION_DOT": 6.77e-06, "MEAN_MOTION_DDOT": 0}, "tle": {"line1": "1 34564U 93036VA  25358.05699122  .00000677  00000+0  21969-3 0  9999", "line2": "2 34564  74.0313 217.0732 0019407 319.4075 199.0321 14.40708116881693"}}, "geometry": {"type": "Point", "coordinates": [34.94140751161291, 5.167424656026535]}}, {"type": "Feature", "properties": {"norad_id": 34567, "name": "COSMOS 2251 DEB", "group": "cosmos-2251-debris", "lat": -57.50659554089011, "lon": -17.520600964504446, "alt_km": 774.0408703333715, "timestamp": "2025-12-24T09:46:31.399550+00:00", "meta": {"OBJECT_NAME": "COSMOS 2251 DEB", "OBJECT_ID": "1993-036VD", "EPOCH": "2025-12-23T10:59:19.321728", "MEAN_MOTION": 14.2402819, "ECCENTRICITY": 0.00741334, "INCLINATION": 74.0409, "RA_OF_ASC_NODE": 137.4896, "ARG_OF_PERICENTER": 209.455, "MEAN_ANOMALY": 205.9365, "EPHEMERIS_TYPE": 0, "CLASSIFICATION_TYPE": "U", "NORAD_CAT_ID": 34567, "ELEMENT_SET_NO": 999, "REV_AT_EPOCH": 87277, "BSTAR": 0.00022860258, "MEAN_MOTION_DOT": 5.15e-06, "MEAN_MOTION_DDOT": 0}, "tle": {"line1": "1 34567U 93036VD  25357.45786252  .00000515  00000+0  22860-3 0  9998", "line2": "2 34567  74.0409 137.4896 0074133 209.4550 205.9365 14.24028190872774"}}, "geometry": {"type": "Point", "coordinates": [-17.520600964504446, -57.50659554089011]}}, {"type": "Feature", "properties": {"norad_id": 34569, "name": "COSMOS 2251 DEB", "group": "cosmos-2251-debris", "lat": 71.23524411846184, "lon": -125.2735963235197, "alt_km": 775.4630729944365, "timestamp": "2025-12-24T09:46:31.399561+00:00", "meta": {"OBJECT_NAME": "COSMOS 2251 DEB", "OBJECT_ID": "1993-036VF", "EPOCH": "2025-12-23T11:37:49.326816", "MEAN_MOTION": 14.24778042, "ECCENTRICITY": 0.01578, "INCLINATION": 73.9893, "RA_OF_ASC_NODE": 178.7069, "ARG_OF_PERICENTER": 4.6429, "MEAN_ANOMALY": 22.8276, "EPHEMERIS_TYPE": 0, "CLASSIFICATION_TYPE": "U", "NORAD_CAT_ID": 34569, "ELEMENT_SET_NO": 999, "REV_AT_EPOCH": 87121, "BSTAR": 0.00040063645, "MEAN_MOTION_DOT": 1.036e-05, "MEAN_MOTION_DDOT": 0}, "tle": {"line1": "1 34569U 93036VF  25357.48459869  .00001036  00000+0  40064-3 0  9999", "line2": "2 34569  73.9893 178.7069 0157800   4.6429  22.8276 14.24778042871217"}}, "geometry": {"type": "Point", "coordinates": [-125.2735963235197, 71.23524411846184]}}, {"type": "Feature", "properties": {"norad_id": 34570, "name": "COSMOS 2251 DEB", "group": "cosmos-2251-debris", "lat": 39.18234587281693, "lon": -148.4435891492667, "alt_km": 779.1556883953663, "timestamp": "2025-12-24T09:46:31.399571+00:00", "meta": {"OBJECT_NAME": "COSMOS 2251 DEB", "OBJECT_ID": "1993-036VG", "EPOCH": "2025-12-23T06:40:44.080608", "MEAN_MOTION": 13.99837278, "ECCENTRICITY": 0.01902095, "INCLINATION": 73.9564, "RA_OF_ASC_NODE": 199.9553, "ARG_OF_PERICENTER": 80.1017, "MEAN_ANOMALY": 34.9685, "EPHEMERIS_TYPE": 0, "CLASSIFICATION_TYPE": "U", "NORAD_CAT_ID": 34570, "ELEMENT_SET_NO": 999, "REV_AT_EPOCH": 85748, "BSTAR": 0.00047470822, "MEAN_MOTION_DOT": 7.91e-06, "MEAN_MOTION_DDOT": 0}, "tle": {"line1": "1 34570U 93036VG  25357.27828797  .00000791  00000+0  47471-3 0  9994", "line2": "2 34570  73.9564 199.9553 0190209  80.1017  34.9685 13.99837278857488"}}, "geometry": {"type": "Point", "coordinates": [-148.4435891492667, 39.18234587281693]}}, {"type": "Feature", "properties": {"norad_id": 34571, "name": "COSMOS 2251 DEB", "group": "cosmos-2251-debris", "lat": 27.166037658380482, "lon": -27.878441608580857, "alt_km": 692.5771979281499, "timestamp": "2025-12-24T09:46:31.399582+00:00", "meta": {"OBJECT_NAME": "COSMOS 2251 DEB", "OBJECT_ID": "1993-036VH", "EPOCH": "2025-12-21T21:25:20.768736", "MEAN_MOTION": 14.4895116, "ECCENTRICITY": 0.00652122, "INCLINATION": 74.039, "RA_OF_ASC_NODE": 165.2791, "ARG_OF_PERICENTER": 198.2553, "MEAN_ANOMALY": 161.6266, "EPHEMERIS_TYPE": 0, "CLASSIFICATION_TYPE": "U", "NORAD_CAT_ID": 34571, "ELEMENT_SET_NO": 999, "REV_AT_EPOCH": 87426, "BSTAR": 0.0025690074, "MEAN_MOTION_DOT": 9.985e-05, "MEAN_MOTION_DDOT": 0}, "tle": {"line1": "1 34571U 93036VH  25355.89260149  .00009985  00000+0  25690-2 0  9994", "line2": "2 34571  74.0390 165.2791 0065212 198.2553 161.6266 14.48951160874269"}}, "geometry": {"type": "Point", "coordinates": [-27.878441608580857, 27.166037658380482]}}]}